start=new Date('2022-04-22T00:00:00.000Z').valueOf();
sats=[{"MEAN_MOTION":"15.06405932","FILE":"3410450","ELEMENT_SET_NO":"999","OBJECT_TYPE":"PAYLOAD","MEAN_ANOMALY":"298.7372","REF_FRAME":"TEME","BSTAR":"0.00015114000000","GP_ID":"201773072","MEAN_ELEMENT_THEORY":"SGP4","TLE_LINE1":"1 46338U 20062P   22111.85402909  .00001971  00000-0  15114-3 0  9991","TLE_LINE2":"2 46338  53.0552 261.5269 0001543  61.3772 298.7372 15.06405932 90604","COUNTRY_CODE":"US","OBJECT_NAME":"STARLINK-1752","DECAY_DATE":null,"CLASSIFICATION_TYPE":"U","NORAD_CAT_ID":"46338","ARG_OF_PERICENTER":"61.3772","PERIAPSIS":"546.127","APOAPSIS":"548.264","EPHEMERIS_TYPE":"0","TIME_SYSTEM":"UTC","REV_AT_EPOCH":"9060","EPOCH":"2022-04-21T20:29:48.113376","RCS_SIZE":"LARGE","LAUNCH_DATE":"2020-09-03","MEAN_MOTION_DOT":"0.00001971","RA_OF_ASC_NODE":"261.5269","MEAN_MOTION_DDOT":"0.0000000000000","CENTER_NAME":"EARTH","SEMIMAJOR_AXIS":"6925.330","OBJECT_ID":"2020-062P","INCLINATION":"53.0552","ECCENTRICITY":"0.00015430","SITE":"AFETR","PERIOD":"95.592"},{"GP_ID":"201773323","BSTAR":"0.00009728200000","OBJECT_TYPE":"PAYLOAD","REF_FRAME":"TEME","MEAN_ANOMALY":"302.1352","ELEMENT_SET_NO":"999","MEAN_MOTION":"15.06414716","FILE":"3410450","APOAPSIS":"548.283","PERIAPSIS":"546.053","ARG_OF_PERICENTER":"57.9794","DECAY_DATE":null,"CLASSIFICATION_TYPE":"U","NORAD_CAT_ID":"46340","OBJECT_NAME":"STARLINK-1759","TLE_LINE2":"2 46340  53.0565 261.6462 0001610  57.9794 302.1352 15.06414716 90605","COUNTRY_CODE":"US","TLE_LINE1":"1 46340U 20062R   22111.82727214  .00001168  00000-0  97282-4 0  9995","MEAN_ELEMENT_THEORY":"SGP4","RA_OF_ASC_NODE":"261.6462","MEAN_MOTION_DOT":"0.00001168","LAUNCH_DATE":"2020-09-03","RCS_SIZE":"LARGE","EPOCH":"2022-04-21T19:51:16.312896","REV_AT_EPOCH":"9060","TIME_SYSTEM":"UTC","EPHEMERIS_TYPE":"0","PERIOD":"95.591","SITE":"AFETR","ECCENTRICITY":"0.00016100","INCLINATION":"53.0565","SEMIMAJOR_AXIS":"6925.303","OBJECT_ID":"2020-062R","CENTER_NAME":"EARTH","MEAN_MOTION_DDOT":"0.0000000000000"},{"PERIOD":"95.591","SITE":"AFETR","ECCENTRICITY":"0.00016450","INCLINATION":"53.0538","OBJECT_ID":"2020-062S","SEMIMAJOR_AXIS":"6925.313","MEAN_MOTION_DDOT":"0.0000000000000","CENTER_NAME":"EARTH","RA_OF_ASC_NODE":"241.6179","MEAN_MOTION_DOT":"0.00005122","LAUNCH_DATE":"2020-09-03","RCS_SIZE":"LARGE","EPOCH":"2022-04-21T20:00:36.165024","REV_AT_EPOCH":"9089","TIME_SYSTEM":"UTC","EPHEMERIS_TYPE":"0","APOAPSIS":"548.317","ARG_OF_PERICENTER":"62.5242","PERIAPSIS":"546.039","NORAD_CAT_ID":"46341","DECAY_DATE":null,"CLASSIFICATION_TYPE":"U","OBJECT_NAME":"STARLINK-1760","TLE_LINE1":"1 46341U 20062S   22111.83375191  .00005122  00000-0  36241-3 0  9991","TLE_LINE2":"2 46341  53.0538 241.6179 0001645  62.5242 297.5914 15.06411653 90896","COUNTRY_CODE":"US","MEAN_ELEMENT_THEORY":"SGP4","GP_ID":"201774069","BSTAR":"0.00036241000000","OBJECT_TYPE":"PAYLOAD","MEAN_ANOMALY":"297.5914","REF_FRAME":"TEME","ELEMENT_SET_NO":"999","FILE":"3410450","MEAN_MOTION":"15.06411653"},{"GP_ID":"201772322","FILE":"3410450","MEAN_MOTION":"15.06405825","ELEMENT_SET_NO":"999","REF_FRAME":"TEME","OBJECT_TYPE":"PAYLOAD","MEAN_ANOMALY":"301.3453","BSTAR":"0.00011492000000","DECAY_DATE":null,"CLASSIFICATION_TYPE":"U","NORAD_CAT_ID":"46342","ARG_OF_PERICENTER":"58.7695","PERIAPSIS":"546.074","APOAPSIS":"548.317","MEAN_ELEMENT_THEORY":"SGP4","TLE_LINE1":"1 46342U 20062T   22111.81348300  .00001431  00000-0  11492-3 0  9992","TLE_LINE2":"2 46342  53.0535 261.6969 0001619  58.7695 301.3453 15.06405825 90608","COUNTRY_CODE":"US","OBJECT_NAME":"STARLINK-1762","LAUNCH_DATE":"2020-09-03","MEAN_MOTION_DOT":"0.00001431","RA_OF_ASC_NODE":"261.6969","EPHEMERIS_TYPE":"0","TIME_SYSTEM":"UTC","REV_AT_EPOCH":"9060","EPOCH":"2022-04-21T19:31:24.931200","RCS_SIZE":"LARGE","INCLINATION":"53.0535","ECCENTRICITY":"0.00016190","SITE":"AFETR","PERIOD":"95.592","MEAN_MOTION_DDOT":"0.0000000000000","CENTER_NAME":"EARTH","SEMIMAJOR_AXIS":"6925.331","OBJECT_ID":"2020-062T"},{"MEAN_MOTION_DDOT":"0.0000000000000","CENTER_NAME":"EARTH","SEMIMAJOR_AXIS":"6925.363","OBJECT_ID":"2020-062U","SITE":"AFETR","PERIOD":"95.592","INCLINATION":"53.0564","ECCENTRICITY":"0.00017210","EPOCH":"2022-04-21T13:01:18.270912","RCS_SIZE":"LARGE","TIME_SYSTEM":"UTC","EPHEMERIS_TYPE":"0","REV_AT_EPOCH":"9084","RA_OF_ASC_NODE":"242.9398","LAUNCH_DATE":"2020-09-03","MEAN_MOTION_DOT":"0.00000227","TLE_LINE1":"1 46343U 20062U   22111.54257258  .00000227  00000-0  34173-4 0  9998","TLE_LINE2":"2 46343  53.0564 242.9398 0001721  76.3143 283.8038 15.06395373 90842","COUNTRY_CODE":"US","OBJECT_NAME":"STARLINK-1764","MEAN_ELEMENT_THEORY":"SGP4","ARG_OF_PERICENTER":"76.3143","PERIAPSIS":"546.036","APOAPSIS":"548.420","CLASSIFICATION_TYPE":"U","DECAY_DATE":null,"NORAD_CAT_ID":"46343","MEAN_ANOMALY":"283.8038","OBJECT_TYPE":"PAYLOAD","REF_FRAME":"TEME","BSTAR":"0.00003417300000","MEAN_MOTION":"15.06395373","FILE":"3410449","ELEMENT_SET_NO":"999","GP_ID":"201747207"},{"GP_ID":"201773824","BSTAR":"0.00018767000000","REF_FRAME":"TEME","OBJECT_TYPE":"PAYLOAD","MEAN_ANOMALY":"309.0722","ELEMENT_SET_NO":"999","FILE":"3410450","MEAN_MOTION":"15.06402389","APOAPSIS":"548.469","ARG_OF_PERICENTER":"51.0429","PERIAPSIS":"545.944","DECAY_DATE":null,"NORAD_CAT_ID":"46344","CLASSIFICATION_TYPE":"U","OBJECT_NAME":"STARLINK-1765","TLE_LINE1":"1 46344U 20062V   22111.62734895  .00002515  00000-0  18767-3 0  9997","COUNTRY_CODE":"US","TLE_LINE2":"2 46344  53.0558 242.5489 0001823  51.0429 309.0722 15.06402389 90851","MEAN_ELEMENT_THEORY":"SGP4","RA_OF_ASC_NODE":"242.5489","MEAN_MOTION_DOT":"0.00002515","LAUNCH_DATE":"2020-09-03","RCS_SIZE":"LARGE","EPOCH":"2022-04-21T15:03:22.949280","REV_AT_EPOCH":"9085","EPHEMERIS_TYPE":"0","TIME_SYSTEM":"UTC","PERIOD":"95.592","SITE":"AFETR","ECCENTRICITY":"0.00018230","INCLINATION":"53.0558","OBJECT_ID":"2020-062V","SEMIMAJOR_AXIS":"6925.341","MEAN_MOTION_DDOT":"0.0000000000000","CENTER_NAME":"EARTH"},{"GP_ID":"201748202","BSTAR":"0.00013348000000","REF_FRAME":"TEME","OBJECT_TYPE":"PAYLOAD","MEAN_ANOMALY":"301.2052","ELEMENT_SET_NO":"999","MEAN_MOTION":"15.06408785","FILE":"3410449","APOAPSIS":"548.232","ARG_OF_PERICENTER":"58.9085","PERIAPSIS":"546.141","CLASSIFICATION_TYPE":"U","DECAY_DATE":null,"NORAD_CAT_ID":"46345","OBJECT_NAME":"STARLINK-1767","TLE_LINE1":"1 46345U 20062W   22110.89937385  .00001708  00000-0  13348-3 0  9998","TLE_LINE2":"2 46345  53.0541 265.8029 0001510  58.9085 301.2052 15.06408785 90462","COUNTRY_CODE":"US","MEAN_ELEMENT_THEORY":"SGP4","RA_OF_ASC_NODE":"265.8029","MEAN_MOTION_DOT":"0.00001708","LAUNCH_DATE":"2020-09-03","RCS_SIZE":"LARGE","EPOCH":"2022-04-20T21:35:05.900640","REV_AT_EPOCH":"9046","TIME_SYSTEM":"UTC","EPHEMERIS_TYPE":"0","PERIOD":"95.592","SITE":"AFETR","ECCENTRICITY":"0.00015100","INCLINATION":"53.0541","OBJECT_ID":"2020-062W","SEMIMAJOR_AXIS":"6925.322","MEAN_MOTION_DDOT":"0.0000000000000","CENTER_NAME":"EARTH"},{"RA_OF_ASC_NODE":"116.6848","LAUNCH_DATE":"2020-09-03","MEAN_MOTION_DOT":"0.00000415","EPOCH":"2022-04-21T17:42:10.789632","RCS_SIZE":"LARGE","EPHEMERIS_TYPE":"0","TIME_SYSTEM":"UTC","REV_AT_EPOCH":"9282","SITE":"AFETR","PERIOD":"93.855","INCLINATION":"53.0545","ECCENTRICITY":"0.00040900","MEAN_MOTION_DDOT":"0.0000000000000","CENTER_NAME":"EARTH","OBJECT_ID":"2020-062X","SEMIMAJOR_AXIS":"6841.174","GP_ID":"201772823","MEAN_ANOMALY":"348.6912","OBJECT_TYPE":"PAYLOAD","REF_FRAME":"TEME","BSTAR":"0.00002354100000","FILE":"3410450","MEAN_MOTION":"15.34287690","ELEMENT_SET_NO":"999","ARG_OF_PERICENTER":"11.4182","PERIAPSIS":"460.241","APOAPSIS":"465.837","DECAY_DATE":null,"NORAD_CAT_ID":"46346","CLASSIFICATION_TYPE":"U","TLE_LINE1":"1 46346U 20062X   22111.73762488  .00000415  00000-0  23541-4 0  9994","COUNTRY_CODE":"US","TLE_LINE2":"2 46346  53.0545 116.6848 0004090  11.4182 348.6912 15.34287690 92820","OBJECT_NAME":"STARLINK-1546","MEAN_ELEMENT_THEORY":"SGP4"},{"RA_OF_ASC_NODE":"216.8232","MEAN_MOTION_DOT":"-0.00000625","LAUNCH_DATE":"2020-09-03","RCS_SIZE":"LARGE","EPOCH":"2022-04-21T18:52:16.852224","REV_AT_EPOCH":"9121","EPHEMERIS_TYPE":"0","TIME_SYSTEM":"UTC","PERIOD":"95.592","SITE":"AFETR","ECCENTRICITY":"0.00018080","INCLINATION":"53.0553","OBJECT_ID":"2020-062Y","SEMIMAJOR_AXIS":"6925.351","CENTER_NAME":"EARTH","MEAN_MOTION_DDOT":"0.0000000000000","GP_ID":"201773073","BSTAR":"-0.00002306800000","REF_FRAME":"TEME","OBJECT_TYPE":"PAYLOAD","MEAN_ANOMALY":"312.8487","ELEMENT_SET_NO":"999","MEAN_MOTION":"15.06399090","FILE":"3410450","APOAPSIS":"548.468","PERIAPSIS":"545.964","ARG_OF_PERICENTER":"47.2654","CLASSIFICATION_TYPE":"U","DECAY_DATE":null,"NORAD_CAT_ID":"46347","OBJECT_NAME":"STARLINK-1547","COUNTRY_CODE":"US","TLE_LINE2":"2 46347  53.0553 216.8232 0001808  47.2654 312.8487 15.06399090 91214","TLE_LINE1":"1 46347U 20062Y   22111.78630616 -.00000625  00000-0 -23068-4 0  9996","MEAN_ELEMENT_THEORY":"SGP4"},{"TIME_SYSTEM":"UTC","EPHEMERIS_TYPE":"0","REV_AT_EPOCH":"9088","EPOCH":"2022-04-21T19:55:17.631552","RCS_SIZE":"LARGE","LAUNCH_DATE":"2020-09-03","MEAN_MOTION_DOT":"0.00013555","RA_OF_ASC_NODE":"241.6245","CENTER_NAME":"EARTH","MEAN_MOTION_DDOT":"0.0000000000000","SEMIMAJOR_AXIS":"6925.285","OBJECT_ID":"2020-062Z","INCLINATION":"53.0538","ECCENTRICITY":"0.00014220","SITE":"AFETR","PERIOD":"95.591","FILE":"3410450","MEAN_MOTION":"15.06420584","ELEMENT_SET_NO":"999","REF_FRAME":"TEME","OBJECT_TYPE":"PAYLOAD","MEAN_ANOMALY":"298.7253","BSTAR":"0.00092662000000","GP_ID":"201773324","MEAN_ELEMENT_THEORY":"SGP4","TLE_LINE2":"2 46348  53.0538 241.6245 0001422  61.3879 298.7253 15.06420584 90884","COUNTRY_CODE":"US","TLE_LINE1":"1 46348U 20062Z   22111.83006518  .00013555  00000-0  92662-3 0  9990","OBJECT_NAME":"STARLINK-1553","NORAD_CAT_ID":"46348","DECAY_DATE":null,"CLASSIFICATION_TYPE":"U","PERIAPSIS":"546.166","ARG_OF_PERICENTER":"61.3879","APOAPSIS":"548.135"}];
